{"type": "FeatureCollection", "features": [ {"type": "Feature", "properties": {"norad_id": 33779, "name": "COSMOS 2251 DEB", "group": "cosmos-2251-debris", "lat": 41.10709781371719, "lon": -176.6840573343433, "alt_km": 667.013555558904, "timestamp": "2025-12-13T16:48:33.102387+00:00", "meta": {"OBJECT_NAME": "COSMOS 2251 DEB", "OBJECT_ID": "1993-036U", "EPOCH": "2025-12-12T23:22:47.538912", "MEAN_MOTION": 14.70458613, "ECCENTRICITY": 0.00169246, "INCLINATION": 74.045, "RA_OF_ASC_NODE": 170.2679, "ARG_OF_PERICENTER": 203.6068, "MEAN_ANOMALY": 316.8884, "EPHEMERIS_TYPE": 0, "CLASSIFICATION_TYPE": "U", "NORAD_CAT_ID": 33779, "ELEMENT_SET_NO": 999, "REV_AT_EPOCH": 88531, "BSTAR": 0.00272167, "MEAN_MOTION_DOT": 0.0001654, "MEAN_MOTION_DDOT": 0}, "tle": {"line1": "1 33779U 93036U   25346.97416133  .00016540  00000+0  27217-2 0  9990", "line2": "2 33779  74.0450 170.2679 0016924 203.6068 316.8884 14.70458613885312"}}, "geometry": {"type": "Point", "coordinates": [-176.6840573343433, 41.10709781371719]}}, {"type": "Feature", "properties": {"norad_id": 33782, "name": "COSMOS 2251 DEB", "group": "cosmos-2251-debris", "lat": 56.831834887951565, "lon": -58.250669403148194, "alt_km": 748.6657451288365, "timestamp": "2025-12-13T16:48:33.102397+00:00", "meta": {"OBJECT_NAME": "COSMOS 2251 DEB", "OBJECT_ID": "1993-036X", "EPOCH": "2025-12-12T22:31:50.545344", "MEAN_MOTION": 14.4044952, "ECCENTRICITY": 0.00207783, "INCLINATION": 74.0335, "RA_OF_ASC_NODE": 277.1783, "ARG_OF_PERICENTER": 341.9016, "MEAN_ANOMALY": 90.6596, "EPHEMERIS_TYPE": 0, "CLASSIFICATION_TYPE": "U", "NORAD_CAT_ID": 33782, "ELEMENT_SET_NO": 999, "REV_AT_EPOCH": 88129, "BSTAR": 0.0006952416, "MEAN_MOTION_DOT": 2.189e-05, "MEAN_MOTION_DDOT": 0}, "tle": {"line1": "1 33782U 93036X   25346.93877946  .00002189  00000+0  69524-3 0  9995", "line2": "2 33782  74.0335 277.1783 0020778 341.9016  90.6596 14.40449520881296"}}, "geometry": {"type": "Point", "coordinates": [-58.250669403148194, 56.831834887951565]}}, {"type": "Feature", "properties": {"norad_id": 33785, "name": "COSMOS 2251 DEB", "group": "cosmos-2251-debris", "lat": 15.91282353384815, "lon": 62.778640893460114, "alt_km": 644.9496556280137, "timestamp": "2025-12-13T16:48:33.102408+00:00", "meta": {"OBJECT_NAME": "COSMOS 2251 DEB", "OBJECT_ID": "1993-036AA", "EPOCH": "2025-12-12T15:09:20.818080", "MEAN_MOTION": 14.70488818, "ECCENTRICITY": 0.00222927, "INCLINATION": 73.8671, "RA_OF_ASC_NODE": 60.1396, "ARG_OF_PERICENTER": 359.5955, "MEAN_ANOMALY": 120.8039, "EPHEMERIS_TYPE": 0, "CLASSIFICATION_TYPE": "U", "NORAD_CAT_ID": 33785, "ELEMENT_SET_NO": 999, "REV_AT_EPOCH": 88505, "BSTAR": 0.0028024146, "MEAN_MOTION_DOT": 0.00017071, "MEAN_MOTION_DDOT": 0}, "tle": {"line1": "1 33785U 93036AA  25346.63149095  .00017071  00000+0  28024-2 0  9997", "line2": "2 33785  73.8671  60.1396 0022292 359.5955 120.8039 14.70488818885051"}}, "geometry": {"type": "Point", "coordinates": [62.778640893460114, 15.91282353384815]}}, {"type": "Feature", "properties": {"norad_id": 33789, "name": "COSMOS 2251 DEB", "group": "cosmos-2251-debris", "lat": -73.35948766898471, "lon": 12.852777195300447, "alt_km": 886.4945231184356, "timestamp": "2025-12-13T16:48:33.102418+00:00", "meta": {"OBJECT_NAME": "COSMOS 2251 DEB", "OBJECT_ID": "1993-036AE", "EPOCH": "2025-12-13T00:48:04.366368", "MEAN_MOTION": 13.88796888, "ECCENTRICITY": 0.02401863, "INCLINATION": 74.0644, "RA_OF_ASC_NODE": 86.9077, "ARG_OF_PERICENTER": 202.476, "MEAN_ANOMALY": 336.2398, "EPHEMERIS_TYPE": 0, "CLASSIFICATION_TYPE": "U", "NORAD_CAT_ID": 33789, "ELEMENT_SET_NO": 999, "REV_AT_EPOCH": 85099, "BSTAR": 0.0011344828, "MEAN_MOTION_DOT": 1.701e-05, "MEAN_MOTION_DDOT": 0}, "tle": {"line1": "1 33789U 93036AE  25347.03338387  .00001701  00000+0  11345-2 0  9991", "line2": "2 33789  74.0644  86.9077 0240186 202.4760 336.2398 13.88796888850997"}}, "geometry": {"type": "Point", "coordinates": [12.852777195300447, -73.35948766898471]}}, {"type": "Feature", "properties": {"norad_id": 33791, "name": "COSMOS 2251 DEB", "group": "cosmos-2251-debris", "lat": -25.050641743813006, "lon": 28.195467760931365, "alt_km": 757.5624682920443, "timestamp": "2025-12-13T16:48:33.102429+00:00", "meta": {"OBJECT_NAME": "COSMOS 2251 DEB", "OBJECT_ID": "1993-036AG", "EPOCH": "2025-12-12T21:47:52.061280", "MEAN_MOTION": 14.4312542, "ECCENTRICITY": 0.00304858, "INCLINATION": 74.1757, "RA_OF_ASC_NODE": 37.2708, "ARG_OF_PERICENTER": 234.497, "MEAN_ANOMALY": 305.4561, "EPHEMERIS_TYPE": 0, "CLASSIFICATION_TYPE": "U", "NORAD_CAT_ID": 33791, "ELEMENT_SET_NO": 999, "REV_AT_EPOCH": 88054, "BSTAR": 0.0011785461, "MEAN_MOTION_DOT": 3.955e-05, "MEAN_MOTION_DDOT": 0}, "tle": {"line1": "1 33791U 93036AG  25346.90824145  .00003955  00000+0  11785-2 0  9992", "line2": "2 33791  74.1757  37.2708 0030485 234.4970 305.4561 14.43125420880547"}}, "geometry": {"type": "Point", "coordinates": [28.195467760931365, -25.050641743813006]}}, {"type": "Feature", "properties": {"norad_id": 33792, "name": "COSMOS 2251 DEB", "group": "cosmos-2251-debris", "lat": 43.66584241606534, "lon": -0.18911231949379537, "alt_km": 764.918415364401, "timestamp": "2025-12-13T16:48:33.102439+00:00", "meta": {"OBJECT_NAME": "COSMOS 2251 DEB", "OBJECT_ID": "1993-036AH", "EPOCH": "2025-12-13T00:48:58.976352", "MEAN_MOTION": 13.45822806, "ECCENTRICITY": 0.0427075, "INCLINATION": 73.9009, "RA_OF_ASC_NODE": 344.8742, "ARG_OF_PERICENTER": 49.4722, "MEAN_ANOMALY": 9.3906, "EPHEMERIS_TYPE": 0, "CLASSIFICATION_TYPE": "U", "NORAD_CAT_ID": 33792, "ELEMENT_SET_NO": 999, "REV_AT_EPOCH": 82446, "BSTAR": 0.0010780988, "MEAN_MOTION_DOT": 1.097e-05, "MEAN_MOTION_DDOT": 0}, "tle": {"line1": "1 33792U 93036AH  25347.03401593  .00001097  00000+0  10781-2 0  9996", "line2": "2 33792  73.9009 344.8742 0427075  49.4722   9.3906 13.45822806824469"}}, "geometry": {"type": "Point", "coordinates": [-0.18911231949379537, 43.66584241606534]}}, {"type": "Feature", "properties": {"norad_id": 33793, "name": "COSMOS 2251 DEB", "group": "cosmos-2251-debris", "lat": 15.511628791605162, "lon": -36.4012350045117, "alt_km": 838.8704020953028, "timestamp": "2025-12-13T16:48:33.102450+00:00", "meta": {"OBJECT_NAME": "COSMOS 2251 DEB", "OBJECT_ID": "1993-036AJ", "EPOCH": "2025-12-12T22:08:00.035232", "MEAN_MOTION": 14.27723773, "ECCENTRICITY": 0.00785278, "INCLINATION": 73.9806, "RA_OF_ASC_NODE": 149.586, "ARG_OF_PERICENTER": 299.6475, "MEAN_ANOMALY": 186.7262, "EPHEMERIS_TYPE": 0, "CLASSIFICATION_TYPE": "U", "NORAD_CAT_ID": 33793, "ELEMENT_SET_NO": 999, "REV_AT_EPOCH": 87209, "BSTAR": 0.0010588824, "MEAN_MOTION_DOT": 2.674e-05, "MEAN_MOTION_DDOT": 0}, "tle": {"line1": "1 33793U 93036AJ  25346.92222263  .00002674  00000+0  10589-2 0  9997", "line2": "2 33793  73.9806 149.5860 0078527 299.6475 186.7262 14.27723773872095"}}, "geometry": {"type": "Point", "coordinates": [-36.4012350045117, 15.511628791605162]}}, {"type": "Feature", "properties": {"norad_id": 33795, "name": "COSMOS 2251 DEB", "group": "cosmos-2251-debris", "lat": 18.36744564037462, "lon": 80.2238557816518, "alt_km": 566.036468967407, "timestamp": "2025-12-13T16:48:33.102460+00:00", "meta": {"OBJECT_NAME": "COSMOS 2251 DEB", "OBJECT_ID": "1993-036AL", "EPOCH": "2025-12-12T23:56:37.753152", "MEAN_MOTION": 15.0553287, "ECCENTRICITY": 0.00314373, "INCLINATION": 74.0317, "RA_OF_ASC_NODE": 76.2086, "ARG_OF_PERICENTER": 159.2907, "MEAN_ANOMALY": 13.0677, "EPHEMERIS_TYPE": 0, "CLASSIFICATION_TYPE": "U", "NORAD_CAT_ID": 33795, "ELEMENT_SET_NO": 999, "REV_AT_EPOCH": 90025, "BSTAR": 0.0018448917, "MEAN_MOTION_DOT": 0.00026918, "MEAN_MOTION_DDOT": 0}, "tle": {"line1": "1 33795U 93036AL  25346.99765918  .00026918  00000+0  18449-2 0  9995", "line2": "2 33795  74.0317  76.2086 0031437 159.2907  13.0677 15.05532870900257"}}, "geometry": {"type": "Point", "coordinates": [80.2238557816518, 18.36744564037462]}}, {"type": "Feature", "properties": {"norad_id": 33797, "name": "COSMOS 2251 DEB", "group": "cosmos-2251-debris", "lat": 32.0396560885022, "lon": 43.44606570984981, "alt_km": 695.5515992411374, "timestamp": "2025-12-13T16:48:33.102470+00:00", "meta": {"OBJECT_NAME": "COSMOS 2251 DEB", "OBJECT_ID": "1993-036AN", "EPOCH": "2025-12-12T21:40:38.187264", "MEAN_MOTION": 14.57849365, "ECCENTRICITY": 0.00607023, "INCLINATION": 74.048, "RA_OF_ASC_NODE": 34.6485, "ARG_OF_PERICENTER": 122.5033, "MEAN_ANOMALY": 49.7651, "EPHEMERIS_TYPE": 0, "CLASSIFICATION_TYPE": "U", "NORAD_CAT_ID": 33797, "ELEMENT_SET_NO": 999, "REV_AT_EPOCH": 88987, "BSTAR": 0.00063212596, "MEAN_MOTION_DOT": 2.94e-05, "MEAN_MOTION_DDOT": 0}, "tle": {"line1": "1 33797U 93036AN  25346.90321976  .00002940  00000+0  63213-3 0  9999", "line2": "2 33797  74.0480  34.6485 0060702 122.5033  49.7651 14.57849365889879"}}, "geometry": {"type": "Point", "coordinates": [43.44606570984981, 32.0396560885022]}}, {"type": "Feature", "properties": {"norad_id": 33798, "name": "COSMOS 2251 DEB", "group": "cosmos-2251-debris", "lat": -45.101092983610044, "lon": -29.180496181256586, "alt_km": 691.2999520734547, "timestamp": "2025-12-13T16:48:33.102480+00:00", "meta": {"OBJECT_NAME": "COSMOS 2251 DEB", "OBJECT_ID": "1993-036AP", "EPOCH": "2025-12-12T20:32:33.260928", "MEAN_MOTION": 14.4461476, "ECCENTRICITY": 0.00924877, "INCLINATION": 74.0281, "RA_OF_ASC_NODE": 135.6887, "ARG_OF_PERICENTER": 257.0366, "MEAN_ANOMALY": 260.9915, "EPHEMERIS_TYPE": 0, "CLASSIFICATION_TYPE": "U", "NORAD_CAT_ID": 33798, "ELEMENT_SET_NO": 999, "REV_AT_EPOCH": 88595, "BSTAR": 0.00027823387, "MEAN_MOTION_DOT": 9.85e-06, "MEAN_MOTION_DDOT": 0}, "tle": {"line1": "1 33798U 93036AP  25346.85594052  .00000985  00000+0  27823-3 0  9995", "line2": "2 33798  74.0281 135.6887 0092487 257.0366 260.9915 14.44614760885955"}}, "geometry": {"type": "Point", "coordinates": [-29.180496181256586, -45.101092983610044]}}]}